{
  "type": "FeatureCollection",
  "features": [
    {
      "type": "Feature",
      "properties": {
        "norad_id": 32376,
        "name": "COSMO-SKYMED 2",
        "group": "resource",
        "lat": 82.10521132747095,
        "lon": 88.32667679156211,
        "alt_km": 614.1452316620071,
        "timestamp": "2025-12-25T22:42:16.653002+00:00",
        "meta_object_name": "COSMO-SKYMED 2",
        "meta_object_id": "2007-059A",
        "meta_epoch": "2025-12-25T19:03:28.783296",
        "meta_mean_motion": 14.82158476,
        "meta_eccentricity": 0.0001307,
        "meta_inclination": 97.8806,
        "meta_ra_of_asc_node": 180.9213,
        "meta_arg_of_pericenter": 82.7969,
        "meta_mean_anomaly": 277.3393,
        "meta_ephemeris_type": 0,
        "meta_classification_type": "U",
        "meta_norad_cat_id": 32376,
        "meta_element_set_no": 999,
        "meta_rev_at_epoch": 97631,
        "meta_bstar": 7.8294e-05,
        "meta_mean_motion_dot": 5.71e-06,
        "meta_mean_motion_ddot": 0,
        "tle_line1": "1 32376U 07059A   25359.79408314  .00000571  00000+0  78294-4 0  9998",
        "tle_line2": "2 32376  97.8806 180.9213 0001307  82.7969 277.3393 14.82158476976313"
      },
      "geometry": {
        "type": "Point",
        "coordinates": [
          88.32667679156211,
          82.10521132747095
        ]
      }
    },
    {
      "type": "Feature",
      "properties": {
        "norad_id": 32382,
        "name": "RADARSAT-2",
        "group": "resource",
        "lat": 79.04725152752269,
        "lon": -46.92681367479764,
        "alt_km": 783.6027867164494,
        "timestamp": "2025-12-25T22:42:16.653013+00:00",
        "meta_object_name": "RADARSAT-2",
        "meta_object_id": "2007-061A",
        "meta_epoch": "2025-12-25T18:57:30.963744",
        "meta_mean_motion": 14.29984428,
        "meta_eccentricity": 0.0001132,
        "meta_inclination": 98.5797,
        "meta_ra_of_asc_node": 4.19,
        "meta_arg_of_pericenter": 85.3609,
        "meta_mean_anomaly": 274.7703,
        "meta_ephemeris_type": 0,
        "meta_classification_type": "U",
        "meta_norad_cat_id": 32382,
        "meta_element_set_no": 999,
        "meta_rev_at_epoch": 94117,
        "meta_bstar": -2.1604e-05,
        "meta_mean_motion_dot": -9.9e-07,
        "meta_mean_motion_ddot": 0,
        "tle_line1": "1 32382U 07061A   25359.78994171 -.00000099  00000+0 -21604-4 0  9998",
        "tle_line2": "2 32382  98.5797   4.1900 0001132  85.3609 274.7703 14.29984428941170"
      },
      "geometry": {
        "type": "Point",
        "coordinates": [
          -46.92681367479764,
          79.04725152752269
        ]
      }
    },
    {
      "type": "Feature",
      "properties": {
        "norad_id": 32783,
        "name": "CARTOSAT-2A",
        "group": "resource",
        "lat": 75.57625333664205,
        "lon": 17.193163244412766,
        "alt_km": 628.945212308563,
        "timestamp": "2025-12-25T22:42:16.653024+00:00",
        "meta_object_name": "CARTOSAT-2A",
        "meta_object_id": "2008-021A",
        "meta_epoch": "2025-12-25T17:28:58.488672",
        "meta_mean_motion": 14.78954917,
        "meta_eccentricity": 0.0010953,
        "meta_inclination": 97.7908,
        "meta_ra_of_asc_node": 49.1447,
        "meta_arg_of_pericenter": 321.5114,
        "meta_mean_anomaly": 38.5316,
        "meta_ephemeris_type": 0,
        "meta_classification_type": "U",
        "meta_norad_cat_id": 32783,
        "meta_element_set_no": 999,
        "meta_rev_at_epoch": 95316,
        "meta_bstar": 0.00012249,
        "meta_mean_motion_dot": 8.54e-06,
        "meta_mean_motion_ddot": 0,
        "tle_line1": "1 32783U 08021A   25359.72845473  .00000854  00000+0  12249-3 0  9995",
        "tle_line2": "2 32783  97.7908  49.1447 0010953 321.5114  38.5316 14.78954917953164"
      },
      "geometry": {
        "type": "Point",
        "coordinates": [
          17.193163244412766,
          75.57625333664205
        ]
      }
    },
    {
      "type": "Feature",
      "properties": {
        "norad_id": 33320,
        "name": "HUANJING 1A (HJ-1A)",
        "group": "resource",
        "lat": 24.53168025453164,
        "lon": 171.21239889235886,
        "alt_km": 630.7006028200976,
        "timestamp": "2025-12-25T22:42:16.653035+00:00",
        "meta_object_name": "HUANJING 1A (HJ-1A)",
        "meta_object_id": "2008-041A",
        "meta_epoch": "2025-12-25T18:46:12.075744",
        "meta_mean_motion": 14.83432278,
        "meta_eccentricity": 0.0019138,
        "meta_inclination": 97.6551,
        "meta_ra_of_asc_node": 347.536,
        "meta_arg_of_pericenter": 352.6693,
        "meta_mean_anomaly": 7.4239,
        "meta_ephemeris_type": 0,
        "meta_classification_type": "U",
        "meta_norad_cat_id": 33320,
        "meta_element_set_no": 999,
        "meta_rev_at_epoch": 93269,
        "meta_bstar": 0.0001658,
        "meta_mean_motion_dot": 1.314e-05,
        "meta_mean_motion_ddot": 0,
        "tle_line1": "1 33320U 08041A   25359.78208421  .00001314  00000+0  16580-3 0  9991",
        "tle_line2": "2 33320  97.6551 347.5360 0019138 352.6693   7.4239 14.83432278932696"
      },
      "geometry": {
        "type": "Point",
        "coordinates": [
          171.21239889235886,
          24.53168025453164
        ]
      }
    },
    {
      "type": "Feature",
      "properties": {
        "norad_id": 33321,
        "name": "HUANJING 1B (HJ-1B)",
        "group": "resource",
        "lat": -11.534237791179992,
        "lon": -7.074695764692458,
        "alt_km": 606.1629921356998,
        "timestamp": "2025-12-25T22:42:16.653046+00:00",
        "meta_object_name": "HUANJING 1B (HJ-1B)",
        "meta_object_id": "2008-041B",
        "meta_epoch": "2025-12-25T17:53:53.588832",
        "meta_mean_motion": 14.828555,
        "meta_eccentricity": 0.0037683,
        "meta_inclination": 97.6409,
        "meta_ra_of_asc_node": 351.164,
        "meta_arg_of_pericenter": 34.5635,
        "meta_mean_anomaly": 325.8018,
        "meta_ephemeris_type": 0,
        "meta_classification_type": "U",
        "meta_norad_cat_id": 33321,
        "meta_element_set_no": 999,
        "meta_rev_at_epoch": 93270,
        "meta_bstar": 0.00020844,
        "meta_mean_motion_dot": 1.657e-05,
        "meta_mean_motion_ddot": 0,
        "tle_line1": "1 33321U 08041B   25359.74575913  .00001657  00000+0  20844-3 0  9999",
        "tle_line2": "2 33321  97.6409 351.1640 0037683  34.5635 325.8018 14.82855500932708"
      },
      "geometry": {
        "type": "Point",
        "coordinates": [
          -7.074695764692458,
          -11.534237791179992
        ]
      }
    },
    {
      "type": "Feature",
      "properties": {
        "norad_id": 33331,
        "name": "GEOEYE 1",
        "group": "resource",
        "lat": -15.678107084623104,
        "lon": -111.23831809196332,
        "alt_km": 680.9648889139926,
        "timestamp": "2025-12-25T22:42:16.653056+00:00",
        "meta_object_name": "GEOEYE 1",
        "meta_object_id": "2008-042A",
        "meta_epoch": "2025-12-25T16:53:42.169920",
        "meta_mean_motion": 14.64717406,
        "meta_eccentricity": 0.0003027,
        "meta_inclination": 98.1237,
        "meta_ra_of_asc_node": 70.8204,
        "meta_arg_of_pericenter": 228.8198,
        "meta_mean_anomaly": 131.2744,
        "meta_ephemeris_type": 0,
        "meta_classification_type": "U",
        "meta_norad_cat_id": 33331,
        "meta_element_set_no": 999,
        "meta_rev_at_epoch": 92475,
        "meta_bstar": 0.0001273,
        "meta_mean_motion_dot": 6.3e-06,
        "meta_mean_motion_ddot": 0,
        "tle_line1": "1 33331U 08042A   25359.70396030  .00000630  00000+0  12730-3 0  9993",
        "tle_line2": "2 33331  98.1237  70.8204 0003027 228.8198 131.2744 14.64717406924755"
      },
      "geometry": {
        "type": "Point",
        "coordinates": [
          -111.23831809196332,
          -15.678107084623104
        ]
      }
    },
    {
      "type": "Feature",
      "properties": {
        "norad_id": 33396,
        "name": "THEOS",
        "group": "resource",
        "lat": 80.49793650842065,
        "lon": -57.87188583424075,
        "alt_km": 816.7326548573965,
        "timestamp": "2025-12-25T22:42:16.653067+00:00",
        "meta_object_name": "THEOS",
        "meta_object_id": "2008-049A",
        "meta_epoch": "2025-12-25T18:52:53.126400",
        "meta_mean_motion": 14.20100081,
        "meta_eccentricity": 0.0001183,
        "meta_inclination": 98.5844,
        "meta_ra_of_asc_node": 57.4902,
        "meta_arg_of_pericenter": 92.8267,
        "meta_mean_anomaly": 267.3045,
        "meta_ephemeris_type": 0,
        "meta_classification_type": "U",
        "meta_norad_cat_id": 33396,
        "meta_element_set_no": 999,
        "meta_rev_at_epoch": 89335,
        "meta_bstar": 0.00018158,
        "meta_mean_motion_dot": 3.44e-06,
        "meta_mean_motion_ddot": 0,
        "tle_line1": "1 33396U 08049A   25359.78672600  .00000344  00000+0  18158-3 0  9991",
        "tle_line2": "2 33396  98.5844  57.4902 0001183  92.8267 267.3045 14.20100081893350"
      },
      "geometry": {
        "type": "Point",
        "coordinates": [
          -57.87188583424075,
          80.49793650842065
        ]
      }
    }
  ]
}